NORAD_CAT_ID,OBJECT_NAME,OBJECT_TYPE,EPOCH,MEAN_MOTION,ECCENTRICITY,INCLINATION,RA_OF_ASC_NODE,ARG_OF_PERICENTER,MEAN_ANOMALY,BSTAR,MEAN_MOTION_DOT,MEAN_MOTION_DDOT,TLE_LINE0,TLE_LINE1,TLE_LINE2,SEMIMAJOR_AXIS,PERIOD,APOGEE,PERIGEE,DECAYED
51729.0,STARLINK-3523,PAYLOAD,2022-10-10 02:43:11,15.08825403,0.0001857,53.2182,155.214,49.7162,310.3992,0.00035542,5.371e-05,0.0,0 STARLINK-3523,1 51729U 22016R   22283.11332514  .00005371  00000-0  35542-3 0  9990,2 51729  53.2182 155.2140 0001857  49.7162 310.3992 15.08825403 36502,6917.925,95.438,541.075,538.505,0.0
51729.0,STARLINK-3523,PAYLOAD,2022-10-10 09:04:43,15.08839349,0.0001968,53.2183,154.0243,46.2254,313.89,9.3179e-05,1.195e-05,0.0,0 STARLINK-3523,1 51729U 22016R   22283.37828313  .00001195  00000-0  93179-4 0  9996,2 51729  53.2183 154.0243 0001968  46.2254 313.8900 15.08839349 35411,6917.882,95.438,541.109,538.386,0.0
51729.0,STARLINK-3523,PAYLOAD,2022-10-10 18:37:01,15.0884553,0.0001865999999999,53.218,152.2431,40.3576,319.7555,0.00017091,2.433e-05,0.0,0 STARLINK-3523,1 51729U 22016R   22283.77571644  .00002433  00000-0  17091-3 0  9996,2 51729  53.2180 152.2431 0001866  40.3576 319.7555 15.08845530 36608,6917.863,95.437,541.019,538.438,0.0
51729.0,STARLINK-3523,PAYLOAD,2022-10-10 21:47:48,15.08837104,0.0001771,53.2202,151.648,35.8054,324.3057,0.00010347,1.359e-05,0.0,0 STARLINK-3523,1 51729U 22016R   22283.90820322  .00001359  00000-0  10347-3 0  9994,2 51729  53.2202 151.6480 0001771  35.8054 324.3057 15.08837104 35498,6917.889,95.438,540.979,538.529,0.0
51729.0,STARLINK-3523,PAYLOAD,2022-10-11 02:33:58,15.088404,0.0001714,53.2184,150.7525,45.1631,314.95,-9.5601e-06,-4.4e-06,0.0,0 STARLINK-3523,1 51729U 22016R   22284.10692311 -.00000440  00000-0 -95601-5 0  9992,2 51729  53.2184 150.7525 0001714  45.1631 314.9500 15.08840400 35524,6917.879,95.438,540.93,538.558,0.0
51729.0,STARLINK-3523,PAYLOAD,2022-10-11 16:52:26,15.08836888,0.0001705,53.2177,148.0764,45.6809,314.4323,-2.2825e-05,-6.51e-06,0.0,0 STARLINK-3523,1 51729U 22016R   22284.70308523 -.00000651  00000-0 -22825-4 0  9998,2 51729  53.2177 148.0764 0001705  45.6809 314.4323 15.08836888 35616,6917.89,95.438,540.934,538.575,0.0
51729.0,STARLINK-3523,PAYLOAD,2022-10-12 15:07:51,15.08830583,0.0001874,53.2161,143.9137,55.0047,305.1121,-9.8849e-07,-3.04e-06,0.0,0 STARLINK-3523,1 51729U 22016R   22285.63045417 -.00000304  00000-0 -98849-6 0  9997,2 51729  53.2161 143.9137 0001874  55.0047 305.1121 15.08830583 35757,6917.909000000002,95.438,541.071,538.4780000000002,0.0
51729.0,STARLINK-3523,PAYLOAD,2022-10-13 07:01:42,15.08831972,0.0002020999999999,53.2178,140.9424,42.4041,317.7107,9.1e-05,1.16e-05,0.0,0 STARLINK-3523,1 51729U 22016R   22286.29285485  .00001160  00000-0  91000-4 0  9990,2 51729  53.2178 140.9424 0002021  42.4041 317.7107 15.08831972 35857,6917.905,95.438,541.168,538.372,0.0
51729.0,STARLINK-3523,PAYLOAD,2022-10-14 00:30:57,15.08831394,0.000158,53.218,137.6711,45.4802,314.6319,9.2818e-05,1.189e-05,0.0,0 STARLINK-3523,1 51729U 22016R   22287.02149851  .00001189  00000-0  92818-4 0  9997,2 51729  53.2180 137.6711 0001580  45.4802 314.6319 15.08831394 37096,6917.906999999997,95.438,540.865,538.679,0.0
51729.0,STARLINK-3523,PAYLOAD,2022-10-14 21:10:58,15.08833,0.0001648,53.2181,133.8053,45.4143,314.6984,7.7914e-05,9.52e-06,0.0,0 STARLINK-3523,1 51729U 22016R   22287.88262135  .00000952  00000-0  77914-4 0  9999,2 51729  53.2181 133.8053 0001648  45.4143 314.6984 15.08833000 36090,6917.901999999999,95.438,540.9069999999998,538.627,0.0
51729.0,STARLINK-3523,PAYLOAD,2022-10-15 06:43:16,15.08841132,0.0001771999999999,53.2177,132.0211,42.6437,317.4693,8.1262e-05,1.005e-05,0.0,0 STARLINK-3523,1 51729U 22016R   22288.28005693  .00001005  00000-0  81262-4 0  9999,2 51729  53.2177 132.0211 0001772  42.6437 317.4693 15.08841132 37280,6917.877,95.437,540.9680000000002,538.516,0.0
51729.0,STARLINK-3523,PAYLOAD,2022-10-15 17:50:58,15.08847012,0.0001831999999999,53.218,129.9395,42.6894,317.4240000000001,0.00013564,1.872e-05,0.0,0 STARLINK-3523,1 51729U 22016R   22288.74373109  .00001872  00000-0  13564-3 0  9991,2 51729  53.2180 129.9395 0001832  42.6894 317.4240 15.08847012 36220,6917.859,95.437,540.991,538.457,0.0
51729.0,STARLINK-3523,PAYLOAD,2022-10-16 12:55:36,15.08841726,0.0001975,53.2178,126.3715,44.1626,315.9524,9.471e-06,-1.37e-06,0.0,0 STARLINK-3523,1 51729U 22016R   22289.53861715 -.00000137  00000-0  94710-5 0  9992,2 51729  53.2178 126.3715 0001975  44.1626 315.9524 15.08841726 37474,6917.875,95.437,541.106,538.374,0.0
51729.0,STARLINK-3523,PAYLOAD,2022-10-16 19:17:09,15.08834423,0.0001869,53.2177,125.1816,43.8398,316.2742,2.5201e-05,1.13e-06,0.0,0 STARLINK-3523,1 51729U 22016R   22289.80358116  .00000113  00000-0  25201-4 0  9999,2 51729  53.2177 125.1816 0001869  43.8398 316.2742 15.08834423 36387,6917.897,95.438,541.055,538.469,0.0
51729.0,STARLINK-3523,PAYLOAD,2022-10-17 01:38:42,15.08833056,0.0001896999999999,53.2178,123.9923,44.0465,316.0679,1.1119e-05,-1.11e-06,0.0,0 STARLINK-3523,1 51729U 22016R   22290.06854357 -.00000111  00000-0  11119-4 0  9999,2 51729  53.2178 123.9923 0001897  44.0465 316.0679 15.08833056 37550,6917.901999999999,95.438,541.0790000000002,538.4540000000002,0.0
51729.0,STARLINK-3523,PAYLOAD,2022-10-17 12:46:23,15.08837121,0.0001959,53.2177,121.9108,44.4462,315.6687,-2.0667e-06,-3.21e-06,0.0,0 STARLINK-3523,1 51729U 22016R   22290.53222209 -.00000321  00000-0 -20667-5 0  9999,2 51729  53.2177 121.9108 0001959  44.4462 315.6687 15.08837121 36495,6917.889,95.438,541.109,538.399,0.0
51729.0,STARLINK-3523,PAYLOAD,2022-10-17 19:07:56,15.08844539,0.0002026,53.2179,120.722,43.4855,316.6296,8.3446e-06,-1.55e-06,0.0,0 STARLINK-3523,1 51729U 22016R   22290.79717676 -.00000155  00000-0  83446-5 0  9992,2 51729  53.2179 120.7220 0002026  43.4855 316.6296 15.08844539 37668,6917.8669999999975,95.437,541.133,538.33,0.0
51729.0,STARLINK-3523,PAYLOAD,2022-10-18 06:15:37,15.08843825,0.0002056999999999,53.2181,118.6402,45.6783,314.4377,9.1211e-05,1.164e-05,0.0,0 STARLINK-3523,1 51729U 22016R   22291.26085342  .00001164  00000-0  91211-4 0  9991,2 51729  53.2181 118.6402 0002057  45.6783 314.4377 15.08843825 36603,6917.869000000002,95.437,541.1569999999998,538.311,0.0
51729.0,STARLINK-3523,PAYLOAD,2022-10-18 18:58:43,15.08836847,0.0002105,53.2183,116.2616,46.3208,313.7958,2.1595e-05,5.5e-07,0.0,0 STARLINK-3523,1 51729U 22016R   22291.79078113  .00000055  00000-0  21595-4 0  9993,2 51729  53.2183 116.2616 0002105  46.3208 313.7958 15.08836847 36681,6917.89,95.438,541.211,538.299,0.0
51729.0,STARLINK-3523,PAYLOAD,2022-10-18 23:44:53,15.08832811,0.0002143,53.2179,115.3698,46.2205,313.8965,5.9589e-05,6.6e-06,0.0,0 STARLINK-3523,1 51729U 22016R   22291.98950332  .00000660  00000-0  59589-4 0  9992,2 51729  53.2179 115.3698 0002143  46.2205 313.8965 15.08832811 36714,6917.901999999999,95.438,541.25,538.285,0.0
51729.0,STARLINK-3523,PAYLOAD,2022-10-19 14:03:20,15.08844025,0.0002145,53.218,112.6933,47.0971,313.0201,4.685899999999999e-05,4.58e-06,0.0,0 STARLINK-3523,1 51729U 22016R   22292.58565743  .00000458  00000-0  46859-4 0  9998,2 51729  53.2180 112.6933 0002145  47.0971 313.0201 15.08844025 37939,6917.868,95.437,541.217,538.249,0.0
51729.0,STARLINK-3523,PAYLOAD,2022-10-19 22:00:16,15.08839035,0.0002158,53.2181,111.2066,46.6796,313.4376,1.6709e-06,-2.62e-06,0.0,0 STARLINK-3523,1 51729U 22016R   22292.91686155 -.00000262  00000-0  16709-5 0  9992,2 51729  53.2181 111.2066 0002158  46.6796 313.4376 15.08839035 37983,6917.8830000000025,95.438,541.241,538.255,0.0
51729.0,STARLINK-3523,PAYLOAD,2022-10-20 12:18:45,15.08831924,0.0001996999999999,53.2179,108.5293,50.45,309.6669,-5.681100000000001e-06,-3.79e-06,0.0,0 STARLINK-3523,1 51729U 22016R   22293.51302726 -.00000379  00000-0 -56811-5 0  9996,2 51729  53.2179 108.5293 0001997  50.4500 309.6669 15.08831924 36943,6917.905,95.438,541.1519999999998,538.389,0.0
51729.0,STARLINK-3523,PAYLOAD,2022-10-20 18:40:17,15.08837084,0.0002073999999999,53.2175,107.3406,46.353,313.7633,2.4289e-05,9.8e-07,0.0,0 STARLINK-3523,1 51729U 22016R   22293.77798402  .00000098  00000-0  24289-4 0  9993,2 51729  53.2175 107.3406 0002074  46.3530 313.7633 15.08837084 36980,6917.889,95.438,541.189,538.32,0.0
51729.0,STARLINK-3523,PAYLOAD,2022-10-20 23:26:27,15.08837413,0.0002089999999999,53.2174,106.4485,46.5921,313.5245,2.5807e-05,1.22e-06,0.0,0 STARLINK-3523,1 51729U 22016R   22293.97670409  .00000122  00000-0  25807-4 0  9996,2 51729  53.2174 106.4485 0002090  46.5921 313.5245 15.08837413 38143,6917.888000000001,95.438,541.1990000000002,538.307,0.0
51729.0,STARLINK-3523,PAYLOAD,2022-10-21 12:09:31,15.08842933,0.0002109999999999,53.2177,104.0695,46.0443,314.0723,4.727600000000001e-05,4.64e-06,0.0,0 STARLINK-3523,1 51729U 22016R   22294.50661967  .00000464  00000-0  47276-4 0  9998,2 51729  53.2177 104.0695 0002110  46.0443 314.0723 15.08842933 37093,6917.871,95.437,541.196,538.2769999999998,0.0
51729.0,STARLINK-3523,PAYLOAD,2022-10-21 18:31:04,15.08843107,0.0002149,53.2174,102.8798,46.6114,313.5057,9.1902e-05,1.175e-05,0.0,0 STARLINK-3523,1 51729U 22016R   22294.77157778  .00001175  00000-0  91902-4 0  9992,2 51729  53.2174 102.8798 0002149  46.6114 313.5057 15.08843107 38261,6917.871,95.437,541.2230000000002,538.249,0.0
51729.0,STARLINK-3523,PAYLOAD,2022-10-22 19:57:15,15.08839164,0.0002162,53.2182,98.1228,46.9666,313.1507,5.0243e-05,5.11e-06,0.0,0 STARLINK-3523,1 51729U 22016R   22295.83142507  .00000511  00000-0  50243-4 0  9990,2 51729  53.2182  98.1228 0002162  46.9666 313.1507 15.08839164 37291,6917.8830000000025,95.438,541.244,538.252,0.0
51729.0,STARLINK-3523,PAYLOAD,2022-10-22 21:32:38,15.0884142,0.0002145999999999,53.2181,97.8251,44.9933,315.1232,6.7517e-05,7.86e-06,0.0,0 STARLINK-3523,1 51729U 22016R   22295.89766308  .00000786  00000-0  67517-4 0  9993,2 51729  53.2181  97.8251 0002146  44.9933 315.1232 15.08841420 38431,6917.876,95.437,541.226,538.256,0.0
